NORAD_CAT_ID,OBJECT_NAME,OBJECT_TYPE,EPOCH,MEAN_MOTION,ECCENTRICITY,INCLINATION,RA_OF_ASC_NODE,ARG_OF_PERICENTER,MEAN_ANOMALY,BSTAR,MEAN_MOTION_DOT,MEAN_MOTION_DDOT,TLE_LINE0,TLE_LINE1,TLE_LINE2,SEMIMAJOR_AXIS,PERIOD,APOGEE,PERIGEE,DECAYED
51731.0,STARLINK-3514,PAYLOAD,2023-05-03 18:45:13,15.08844728,0.000103,53.2153,311.9382,86.6573,273.4537,0.00031299,4.698e-05,0.0,0 STARLINK-3514,1 51731U 22016T   23123.78140557  .00004698  00000-0  31299-3 0  9990,2 51731  53.2153 311.9382 0001030  86.6573 273.4537 15.08844728 66420,6917.866,95.437,540.443,539.018,0.0
51731.0,STARLINK-3514,PAYLOAD,2023-05-04 12:14:27,15.08847133,0.000114,53.2153,308.6681,80.2537,279.8584,0.0002926,4.373e-05,0.0,0 STARLINK-3514,1 51731U 22016T   23124.51004443  .00004373  00000-0  29260-3 0  9990,2 51731  53.2153 308.6681 0001140  80.2537 279.8584 15.08847133 66534,6917.859,95.437,540.512,538.935,0.0
51731.0,STARLINK-3514,PAYLOAD,2023-05-04 18:36:00,15.08848631,0.0001074,53.2153,307.4776,83.6552,276.4562,0.00026728,3.969e-05,0.0,0 STARLINK-3514,1 51731U 22016T   23124.77500277  .00003969  00000-0  26728-3 0  9990,2 51731  53.2153 307.4776 0001074  83.6552 276.4562 15.08848631 67686,6917.854,95.437,540.462,538.976,0.0
51731.0,STARLINK-3514,PAYLOAD,2023-05-05 15:16:01,15.08836717,0.0001063,53.2154,303.6106,97.3702,262.7411,-2.9673e-05,-7.6e-06,0.0,0 STARLINK-3514,1 51731U 22016T   23125.63612633 -.00000760  00000-0 -29673-4 0  9997,2 51731  53.2154 303.6106 0001063  97.3702 262.7411 15.08836717 67817,6917.89,95.438,540.491,539.02,0.0
51731.0,STARLINK-3514,PAYLOAD,2023-05-05 18:26:47,15.08838413,0.0001153,53.2165,303.0172,87.425,272.6874,2.4379e-05,1e-06,0.0,0 STARLINK-3514,1 51731U 22016T   23125.76860753  .00000100  00000-0  24379-4 0  9993,2 51731  53.2165 303.0172 0001153  87.4250 272.6874 15.08838413 66721,6917.885,95.438,540.548,538.953,0.0
51731.0,STARLINK-3514,PAYLOAD,2023-05-05 21:37:33,15.08841581,0.000116,53.2163,302.4219,93.3983,266.7142,2.1295e-05,5.1e-07,0.0,0 STARLINK-3514,1 51731U 22016T   23125.90108512  .00000051  00000-0  21295-4 0  9996,2 51731  53.2163 302.4219 0001160  93.3983 266.7142 15.08841581 66745,6917.876,95.437,540.543,538.938,0.0
51731.0,STARLINK-3514,PAYLOAD,2023-05-07 03:49:53,15.08841395,0.0001229,53.217,296.7678,102.8757,257.2372,9.9811e-05,1.301e-05,0.0,0 STARLINK-3514,1 51731U 22016T   23127.15964173  .00001301  00000-0  99811-4 0  9996,2 51731  53.2170 296.7678 0001229 102.8757 257.2372 15.08841395 68046,6917.876,95.437,540.591,538.891,0.0
51731.0,STARLINK-3514,PAYLOAD,2023-05-07 18:08:21,15.08836464,0.000109,53.2163,294.0957,92.0499,268.0618,6.2318e-05,7.04e-06,0.0,0 STARLINK-3514,1 51731U 22016T   23127.75580837  .00000704  00000-0  62318-4 0  9991,2 51731  53.2163 294.0957 0001090  92.0499 268.0618 15.08836464 68132,6917.891,95.438,540.51,539.002,0.0
51731.0,STARLINK-3514,PAYLOAD,2023-05-08 17:59:08,15.08843802,0.0001096,53.2158,289.6361,101.0609,259.0506,1.8686e-05,1e-07,0.0,0 STARLINK-3514,1 51731U 22016T   23128.74940655  .00000010  00000-0  18686-4 0  9998,2 51731  53.2158 289.6361 0001096 101.0609 259.0506 15.08843802 67178,6917.869,95.437,540.492,538.976,0.0
51731.0,STARLINK-3514,PAYLOAD,2023-05-09 22:36:04,15.08854133,0.0001333,53.2173,284.2862,121.1196,238.9927,0.00015076,2.113e-05,0.0,0 STARLINK-3514,1 51731U 22016T   23129.94171786  .00002113  00000-0  15076-3 0  9997,2 51731  53.2173 284.2862 0001333 121.1196 238.9927 15.08854133 67352,6917.837,95.437,540.624,538.78,0.0
51731.0,STARLINK-3514,PAYLOAD,2023-05-10 17:40:43,15.08840054,0.0001244,53.216,280.7162,79.6393,280.4739,6.6174e-05,7.65e-06,0.0,0 STARLINK-3514,1 51731U 22016T   23130.73660940  .00000765  00000-0  66174-4 0  9998,2 51731  53.2160 280.7162 0001244  79.6393 280.4739 15.08840054 68585,6917.88,95.438,540.606,538.885,0.0
51731.0,STARLINK-3514,PAYLOAD,2023-05-10 22:26:51,15.08851486,8.59e-05,53.2147,279.8222,105.7479,254.3608,0.00021241,3.095e-05,0.0,0 STARLINK-3514,1 51731U 22016T   23130.93532168  .00003095  00000-0  21241-3 0  9994,2 51731  53.2147 279.8222 0000859 105.7479 254.3608 15.08851486 67500,6917.845,95.437,540.305,539.116,0.0
51731.0,STARLINK-3514,PAYLOAD,2023-05-11 15:56:07,15.08838414,0.0001231,53.2164,276.5485,78.354,281.7591,-4.2625e-05,-9.66e-06,0.0,0 STARLINK-3514,1 51731U 22016T   23131.66397027 -.00000966  00000-0 -42625-4 0  9994,2 51731  53.2164 276.5485 0001231  78.3540 281.7591 15.08838414 68729,6917.885,95.438,540.602,538.899,0.0
51731.0,STARLINK-3514,PAYLOAD,2023-05-12 03:03:48,15.08840902,0.0001184,53.216,274.4676,101.4296,258.6829,5.9119e-05,6.53e-06,0.0,0 STARLINK-3514,1 51731U 22016T   23132.12765009  .00000653  00000-0  59119-4 0  9992,2 51731  53.2160 274.4676 0001184 101.4296 258.6829 15.08840902 67683,6917.878,95.437,540.562,538.924,0.0
51731.0,STARLINK-3514,PAYLOAD,2023-05-12 15:46:54,15.088419,0.0001133,53.2159,272.0917,87.121,272.9911,8.595e-05,1.08e-05,0.0,0 STARLINK-3514,1 51731U 22016T   23132.65757242  .00001080  00000-0  85950-4 0  9997,2 51731  53.2159 272.0917 0001133  87.1210 272.9911 15.08841900 67762,6917.875,95.437,540.523,538.956,0.0
51731.0,STARLINK-3514,PAYLOAD,2023-05-13 12:26:55,15.08842895,0.0001154,53.2166,268.2253,88.787,271.3255,0.00013861,1.919e-05,0.0,0 STARLINK-3514,1 51731U 22016T   23133.51869243  .00001919  00000-0  13861-3 0  9990,2 51731  53.2166 268.2253 0001154  88.7870 271.3255 15.08842895 67894,6917.872,95.437,540.535,538.938,0.0
51731.0,STARLINK-3514,PAYLOAD,2023-05-13 14:02:18,15.08843948,0.0001158,53.2163,267.9279,88.7251,271.3874,0.00015095,2.116e-05,0.0,0 STARLINK-3514,1 51731U 22016T   23133.58493179  .00002116  00000-0  15095-3 0  9999,2 51731  53.2163 267.9279 0001158  88.7251 271.3874 15.08843948 69015,6917.868,95.437,540.534,538.932,0.0
51731.0,STARLINK-3514,PAYLOAD,2023-05-13 18:48:27,15.08850117,0.0001147,53.2169,267.0366,84.9447,275.1676,0.00022031,3.221e-05,0.0,0 STARLINK-3514,1 51731U 22016T   23133.78364807  .00003221  00000-0  22031-3 0  9992,2 51731  53.2169 267.0366 0001147  84.9447 275.1676 15.08850117 67939,6917.849,95.437,540.508,538.921,0.0
51731.0,STARLINK-3514,PAYLOAD,2023-05-14 13:53:05,15.08838638,0.0001137,53.2166,263.4693,77.3038,282.8081,8.6413e-05,1.088e-05,0.0,0 STARLINK-3514,1 51731U 22016T   23134.57853437  .00001088  00000-0  86413-4 0  9996,2 51731  53.2166 263.4693 0001137  77.3038 282.8081 15.08838638 69166,6917.885,95.438,540.536,538.963,0.0
51731.0,STARLINK-3514,PAYLOAD,2023-05-14 20:14:37,15.08850097,0.0001204,53.2165,262.2774,88.2776,271.8354,0.00016731,2.377e-05,0.0,0 STARLINK-3514,1 51731U 22016T   23134.84348678  .00002377  00000-0  16731-3 0  9999,2 51731  53.2165 262.2774 0001204  88.2776 271.8354 15.08850097 68092,6917.85,95.437,540.547,538.882,0.0
51731.0,STARLINK-3514,PAYLOAD,2023-05-15 12:08:29,15.08836366,9.27e-05,53.2158,259.3019,73.8867,286.2227,-0.00010809,-2.007e-05,0.0,0 STARLINK-3514,1 51731U 22016T   23135.50589356 -.00002007  00000-0 -10809-3 0  9995,2 51731  53.2158 259.3019 0000927  73.8867 286.2227 15.08836366 68198,6917.891,95.438,540.398,539.115,0.0
51731.0,STARLINK-3514,PAYLOAD,2023-05-15 15:19:15,15.08841289,0.0001127,53.2167,258.7114,97.8728,262.2392,-6.6511e-06,-3.94e-06,0.0,0 STARLINK-3514,1 51731U 22016T   23135.63837148 -.00000394  00000-0 -66511-5 0  9994,2 51731  53.2167 258.7114 0001127  97.8728 262.2392 15.08841289 69325,6917.876,95.437,540.521,538.962,0.0
51731.0,STARLINK-3514,PAYLOAD,2023-05-16 13:34:39,15.08839127,9.73e-05,53.2153,254.5463,87.9319,272.1785,4.7497e-06,-2.12e-06,0.0,0 STARLINK-3514,1 51731U 22016T   23136.56573637 -.00000212  00000-0  47497-5 0  9997,2 51731  53.2153 254.5463 0000973  87.9319 272.1785 15.08839127 68351,6917.883,95.438,540.421,539.075,0.0
51731.0,STARLINK-3514,PAYLOAD,2023-05-17 15:00:49,15.08844806,0.0001102,53.2164,249.7896,92.6389,267.4729,0.00016984,2.417e-05,0.0,0 STARLINK-3514,1 51731U 22016T   23137.62557491  .00002417  00000-0  16984-3 0  9998,2 51731  53.2164 249.7896 0001102  92.6389 267.4729 15.08844806 69620,6917.866,95.437,540.493,538.968,0.0
51731.0,STARLINK-3514,PAYLOAD,2023-05-18 00:33:08,15.08839321,0.0001203,53.2166,248.0062,81.1406,278.9723,6.4584e-05,7.4e-06,0.0,0 STARLINK-3514,1 51731U 22016T   23138.02301846  .00000740  00000-0  64584-4 0  9991,2 51731  53.2166 248.0062 0001203  81.1406 278.9723 15.08839321 69687,6917.882,95.438,540.58,538.915,0.0
51731.0,STARLINK-3514,PAYLOAD,2023-05-18 11:40:51,15.08832787,0.0001336,53.2167,245.9246,75.4704,284.6436,2.5503e-05,1.18e-06,0.0,0 STARLINK-3514,1 51731U 22016T   23138.48670437  .00000118  00000-0  25503-4 0  9993,2 51731  53.2167 245.9246 0001336  75.4704 284.6436 15.08832787 69754,6917.902,95.438,540.692,538.843,0.0
51731.0,STARLINK-3514,PAYLOAD,2023-05-18 13:16:14,15.08832577,0.0001299,53.2166,245.6263,73.5247,286.5888,-4.6627e-06,-3.62e-06,0.0,0 STARLINK-3514,1 51731U 22016T   23138.55294454 -.00000362  00000-0 -46627-5 0  9996,2 51731  53.2166 245.6263 0001299  73.5247 286.5888 15.08832577 68655,6917.903,95.438,540.667,538.869,0.0
51731.0,STARLINK-3514,PAYLOAD,2023-05-19 00:23:56,15.08839422,0.0001153,53.2166,243.5448,78.3993,281.7128,7.2488e-05,8.66e-06,0.0,0 STARLINK-3514,1 51731U 22016T   23139.01662169  .00000866  00000-0  72488-4 0  9990,2 51731  53.2166 243.5448 0001153  78.3993 281.7128 15.08839422 69838,6917.882,95.438,540.545,538.95,0.0
51731.0,STARLINK-3514,PAYLOAD,2023-05-19 16:17:47,15.08849,0.0001343,53.2172,240.5698,84.2227,275.8919,0.00021587,3.15e-05,0.0,0 STARLINK-3514,1 51731U 22016T   23139.67901726  .00003150  00000-0  21587-3 0  9999,2 51731  53.2172 240.5698 0001343  84.2227 275.8919 15.08849000 69932,6917.853,95.437,540.647,538.789,0.0
51731.0,STARLINK-3514,PAYLOAD,2023-05-20 11:22:24,15.08847249,0.0001028,53.2156,237.0013,72.528,287.5825,0.00030987,4.648e-05,0.0,0 STARLINK-3514,1 51731U 22016T   23140.47389648  .00004648  00000-0  30987-3 0  9999,2 51731  53.2156 237.0013 0001028  72.5280 287.5825 15.08847249 70059,6917.858,95.437,540.434,539.012,0.0
